{
  "type": "FeatureCollection",
  "features": [
    {
      "type": "Feature",
      "geometry": {
        "type": "Point",
        "coordinates": [
          -72.6926476,
          41.7780893
        ]
      },
      "properties": {
        "city": "Hartford",
        "address": "25H Edgewood Street",
        "parcelNumber": "199-204-025",
        "status": "TBD",
        "propertyClass": "Vacant Lot",
        "currentlyOwned": "yes",
        "group": "have_current",
        "need_to_find": "no",
        "source": "ePropertyPlus"
      }
    },
    {
      "type": "Feature",
      "geometry": {
        "type": "Point",
        "coordinates": [
          -72.6814115,
          41.7776654
        ]
      },
      "properties": {
        "city": "Hartford",
        "address": "36 Green Street",
        "parcelNumber": "221-235-184",
        "status": "TBD",
        "propertyClass": "Vacant Lot",
        "currentlyOwned": "yes",
        "group": "have_current",
        "need_to_find": "no",
        "source": "ePropertyPlus"
      }
    },
    {
      "type": "Feature",
      "geometry": {
        "type": "Point",
        "coordinates": [
          -73.036310217,
          41.5633829946
        ]
      },
      "properties": {
        "city": "Waterbury",
        "address": "158 Bishop St",
        "parcelNumber": "023601720055",
        "status": "Analyzing for Sale",
        "propertyClass": "Not Classified",
        "currentlyOwned": "yes",
        "group": "have_current",
        "need_to_find": "no",
        "source": "ePropertyPlus"
      }
    },
    {
      "type": "Feature",
      "geometry": {
        "type": "Point",
        "coordinates": [
          -73.0336266281,
          41.5570233857
        ]
      },
      "properties": {
        "city": "Waterbury",
        "address": "122 Cherry St",
        "parcelNumber": "027500880137",
        "status": "Available for Sale",
        "propertyClass": "Not Classified",
        "currentlyOwned": "yes",
        "group": "have_current",
        "need_to_find": "no",
        "source": "ePropertyPlus"
      }
    },
    {
      "type": "Feature",
      "geometry": {
        "type": "Point",
        "coordinates": [
          -73.0123479366,
          41.5471908581
        ]
      },
      "properties": {
        "city": "Waterbury",
        "address": "Edson Ave",
        "parcelNumber": "034901070123",
        "status": "Available For Sale",
        "propertyClass": "Not Classified",
        "currentlyOwned": "yes",
        "group": "have_current",
        "need_to_find": "no",
        "source": "ePropertyPlus"
      }
    },
    {
      "type": "Feature",
      "geometry": {
        "type": "Point",
        "coordinates": [
          -73.0317956201,
          41.5604273386
        ]
      },
      "properties": {
        "city": "Waterbury",
        "address": "227 Orange St",
        "parcelNumber": "025601680251",
        "status": "Holding",
        "propertyClass": "Residential Vacant",
        "currentlyOwned": "yes",
        "group": "have_current",
        "need_to_find": "no",
        "source": "ePropertyPlus"
      }
    },
    {
      "type": "Feature",
      "geometry": {
        "type": "Point",
        "coordinates": [
          -73.0317193546,
          41.5605348699
        ]
      },
      "properties": {
        "city": "Waterbury",
        "address": "231 Orange St",
        "parcelNumber": "025601680025",
        "status": "Holding",
        "propertyClass": "Residential Vacant",
        "currentlyOwned": "yes",
        "group": "have_current",
        "need_to_find": "no",
        "source": "ePropertyPlus"
      }
    },
    {
      "type": "Feature",
      "geometry": {
        "type": "Point",
        "coordinates": [
          -73.0312004256,
          41.5603692906
        ]
      },
      "properties": {
        "city": "Waterbury",
        "address": "234 Orange St",
        "parcelNumber": "025605710087",
        "status": "Holding",
        "propertyClass": "Residential Vacant",
        "currentlyOwned": "yes",
        "group": "have_current",
        "need_to_find": "no",
        "source": "ePropertyPlus"
      }
    },
    {
      "type": "Feature",
      "geometry": {
        "type": "Point",
        "coordinates": [
          -73.0311299646,
          41.5604657374
        ]
      },
      "properties": {
        "city": "Waterbury",
        "address": "238 Orange St",
        "parcelNumber": "025605710088",
        "status": "Holding",
        "propertyClass": "Residential Vacant",
        "currentlyOwned": "yes",
        "group": "have_current",
        "need_to_find": "no",
        "source": "ePropertyPlus"
      }
    },
    {
      "type": "Feature",
      "geometry": {
        "type": "Point",
        "coordinates": [
          -73.0321221451,
          41.560665239
        ]
      },
      "properties": {
        "city": "Waterbury",
        "address": "68 Vine St",
        "parcelNumber": "023701680012",
        "status": "Available For Sale",
        "propertyClass": "Residential Vacant",
        "currentlyOwned": "yes",
        "group": "have_current",
        "need_to_find": "no",
        "source": "ePropertyPlus"
      }
    },
    {
      "type": "Feature",
      "geometry": {
        "type": "Point",
        "coordinates": [
          -73.0314579079,
          41.5606571926
        ]
      },
      "properties": {
        "city": "Waterbury",
        "address": "Wood St",
        "parcelNumber": "023701680018",
        "status": "Holding",
        "propertyClass": "Residential Vacant",
        "currentlyOwned": "yes",
        "group": "have_current",
        "need_to_find": "no",
        "source": "ePropertyPlus"
      }
    },
    {
      "type": "Feature",
      "geometry": {
        "type": "Point",
        "coordinates": [
          -73.03274378051,
          41.55728353278
        ]
      },
      "properties": {
        "city": "Waterbury",
        "address": "25 High Street",
        "parcelNumber": "02760169005",
        "status": "Available For Sale",
        "propertyClass": "Residential Vacant",
        "currentlyOwned": "yes",
        "group": "have_current",
        "need_to_find": "no",
        "source": "ePropertyPlus + Census geocode"
      }
    },
    {
      "type": "Feature",
      "geometry": {
        "type": "Point",
        "coordinates": [
          -73.033756968173,
          41.556753370902
        ]
      },
      "properties": {
        "city": "Waterbury",
        "address": "21 Pryor Place",
        "parcelNumber": "027500880020",
        "status": "Available for Sale",
        "propertyClass": "Residential Vacant",
        "currentlyOwned": "yes",
        "group": "have_current",
        "need_to_find": "no",
        "source": "ePropertyPlus + Census geocode"
      }
    },
    {
      "type": "Feature",
      "geometry": {
        "type": "Point",
        "coordinates": [
          -73.0499860325,
          41.5605530939
        ]
      },
      "properties": {
        "city": "Waterbury",
        "address": "Fairview St",
        "parcelNumber": "025300590002",
        "status": "Available For Sale",
        "propertyClass": "Residential Vacant",
        "currentlyOwned": "yes",
        "group": "have_current",
        "need_to_find": "no",
        "source": "ePropertyPlus"
      }
    },
    {
      "type": "Feature",
      "geometry": {
        "type": "Point",
        "coordinates": [
          -73.0287064129,
          41.5551053231
        ]
      },
      "properties": {
        "city": "Waterbury",
        "address": "60 Laurel St",
        "parcelNumber": "029600910074",
        "status": "Available for Sale",
        "propertyClass": "Residential Vacant",
        "currentlyOwned": "yes",
        "group": "have_current",
        "need_to_find": "no",
        "source": "ePropertyPlus"
      }
    },
    {
      "type": "Feature",
      "geometry": {
        "type": "Point",
        "coordinates": [
          -73.0326034292,
          41.5594626649
        ]
      },
      "properties": {
        "city": "Waterbury",
        "address": "187 Orange St",
        "parcelNumber": "025601680034",
        "status": "Available for Sale",
        "propertyClass": "Residential Vacant",
        "currentlyOwned": "yes",
        "group": "have_current",
        "need_to_find": "no",
        "source": "ePropertyPlus"
      }
    },
    {
      "type": "Feature",
      "geometry": {
        "type": "Point",
        "coordinates": [
          -73.0320377891,
          41.5609251485
        ]
      },
      "properties": {
        "city": "Waterbury",
        "address": "4 Wood St",
        "parcelNumber": "023701680014",
        "status": "Available for Sale",
        "propertyClass": "Not Classified",
        "currentlyOwned": "yes",
        "group": "have_current",
        "need_to_find": "no",
        "source": "ePropertyPlus"
      }
    },
    {
      "type": "Feature",
      "geometry": {
        "type": "Point",
        "coordinates": [
          -72.93659146519,
          41.292546730049
        ]
      },
      "properties": {
        "city": "New Haven",
        "address": "56 Button St, New Haven, CT",
        "parcelNumber": "",
        "status": "Housing CT site (posted)",
        "propertyClass": "",
        "currentlyOwned": "unknown",
        "group": "have_nh_housing_ct",
        "need_to_find": "no",
        "source": "nhlandbank.com/housing-ct-in-new-haven"
      }
    },
    {
      "type": "Feature",
      "geometry": {
        "type": "Point",
        "coordinates": [
          -72.93431148184,
          41.291608789607
        ]
      },
      "properties": {
        "city": "New Haven",
        "address": "8 Dewitt St, New Haven, CT",
        "parcelNumber": "",
        "status": "Housing CT site (posted)",
        "propertyClass": "",
        "currentlyOwned": "unknown",
        "group": "have_nh_housing_ct",
        "need_to_find": "no",
        "source": "nhlandbank.com/housing-ct-in-new-haven"
      }
    },
    {
      "type": "Feature",
      "geometry": {
        "type": "Point",
        "coordinates": [
          -72.934351539662,
          41.291748992034
        ]
      },
      "properties": {
        "city": "New Haven",
        "address": "14 Dewitt St, New Haven, CT",
        "parcelNumber": "",
        "status": "Housing CT site (posted)",
        "propertyClass": "",
        "currentlyOwned": "unknown",
        "group": "have_nh_housing_ct",
        "need_to_find": "no",
        "source": "nhlandbank.com/housing-ct-in-new-haven"
      }
    },
    {
      "type": "Feature",
      "geometry": {
        "type": "Point",
        "coordinates": [
          -72.934431655307,
          41.292029396889
        ]
      },
      "properties": {
        "city": "New Haven",
        "address": "26 Dewitt St, New Haven, CT",
        "parcelNumber": "",
        "status": "Housing CT site (posted)",
        "propertyClass": "",
        "currentlyOwned": "unknown",
        "group": "have_nh_housing_ct",
        "need_to_find": "no",
        "source": "nhlandbank.com/housing-ct-in-new-haven"
      }
    },
    {
      "type": "Feature",
      "geometry": {
        "type": "Point",
        "coordinates": [
          -72.892625553171,
          41.297190926383
        ]
      },
      "properties": {
        "city": "New Haven",
        "address": "107 Farren Ave, New Haven, CT",
        "parcelNumber": "",
        "status": "Housing CT site (posted)",
        "propertyClass": "",
        "currentlyOwned": "unknown",
        "group": "have_nh_housing_ct",
        "need_to_find": "no",
        "source": "nhlandbank.com/housing-ct-in-new-haven"
      }
    },
    {
      "type": "Feature",
      "geometry": {
        "type": "Point",
        "coordinates": [
          -72.927452090263,
          41.332132404566
        ]
      },
      "properties": {
        "city": "New Haven",
        "address": "311 Newhall St, New Haven, CT",
        "parcelNumber": "",
        "status": "Housing CT site (posted)",
        "propertyClass": "",
        "currentlyOwned": "unknown",
        "group": "have_nh_housing_ct",
        "need_to_find": "no",
        "source": "nhlandbank.com/housing-ct-in-new-haven"
      }
    },
    {
      "type": "Feature",
      "geometry": {
        "type": "Point",
        "coordinates": [
          -72.927252341312,
          41.333330557636
        ]
      },
      "properties": {
        "city": "New Haven",
        "address": "344 Newhall St, New Haven, CT",
        "parcelNumber": "",
        "status": "Housing CT site (posted)",
        "propertyClass": "",
        "currentlyOwned": "unknown",
        "group": "have_nh_housing_ct",
        "need_to_find": "no",
        "source": "nhlandbank.com/housing-ct-in-new-haven"
      }
    }
  ]
}